{"spkid": "20499998", "covariance": {"labels": ["e", "q", "tp", "node", "peri", "i", "A2"], "elements": [{"title": "eccentricity", "value": ".2147173651425314", "units": null, "sigma": 9.49015214592223e-09, "name": "e", "label": "e"}, {"title": "perihelion distance", "value": "1.03056988192558", "units": "au", "name": "q", "sigma": 1.2358431110181e-08, "label": "q"}, {"label": "tp", "units": "TDB", "title": "time of perihelion passage", "value": "2457482.983307744352", "name": "tp", "sigma": 1.05486875884678e-05}, {"label": "node", "name": "om", "sigma": 2.87117812642039e-05, "units": "deg", "title": "longitude of the ascending node", "value": "71.08589112134884"}, {"value": "298.7968827312213", "title": "argument of perihelion", "units": "deg", "sigma": 3.30152485237419e-05, "name": "w", "label": "peri"}, {"name": "i", "sigma": 1.22963825360101e-06, "units": "deg", "title": "inclination", "value": "2.212867649162697", "label": "i"}], "data": [["9.006298775275227E-17", "-1.170812715522085E-16", "2.221132876421843E-14", "-3.608143718112001E-14", "5.450884771959166E-14", "-1.908421991284395E-15", "-9.014791773298327E-23"], ["-1.170812715522085E-16", "1.527308195050908E-16", "-2.861690992195137E-14", "4.743906223010526E-14", "-7.149105612198168E-14", "2.541673244382513E-15", "1.198282370423085E-22"], ["2.221132876421843E-14", "-2.861690992195137E-14", "1.11274809839094E-10", "-8.402074330170834E-11", "1.915013433078155E-10", "2.585089975235496E-12", "-1.091352068849953E-21"], ["-3.608143718112001E-14", "4.743906223010526E-14", "-8.402074330170834E-11", "8.243663833634902E-10", "-9.046994456721356E-10", "-1.299972367500504E-11", "-1.273114096361836E-20"], ["5.450884771959166E-14", "-7.149105612198168E-14", "1.915013433078155E-10", "-9.046994456721356E-10", "1.090006635084442E-9", "1.550105187133152E-11", "3.380403857677991E-20"], ["-1.908421991284395E-15", "2.541673244382513E-15", "2.585089975235496E-12", "-1.299972367500504E-11", "1.550105187133152E-11", "1.512010234718933E-12", "5.305704883180692E-21"], ["-9.014791773298327E-23", "1.198282370423085E-22", "-1.091352068849953E-21", "-1.273114096361836E-20", "3.380403857677991E-20", "5.305704883180692E-21", "9.066383413154605E-28"]], "epoch": "2457231.5"}, "elements": [{"value": ".2165770488863741", "title": "eccentricity", "units": null, "name": "e", "sigma": "9.8211E-9", "label": "e"}, {"label": "a", "units": "au", "title": "semi-major axis", "value": "1.315894918507801", "name": "a", "sigma": "1.078E-8"}, {"title": "perihelion distance", "value": "1.030902280412805", "units": "au", "sigma": "1.7541E-8", "name": "q", "label": "q"}, {"label": "i", "title": "inclination; angle with respect to x-y ecliptic plane", "value": "2.220712069309112", "units": "deg", "name": "i", "sigma": "1.2313E-6"}, {"name": "om", "sigma": "2.846E-5", "units": "deg", "value": "70.5427383535505", "title": "longitude of the ascending node", "label": "node"}, {"title": "argument of perihelion", "value": "299.5766166968563", "units": "deg", "name": "w", "sigma": "3.2756E-5", "label": "peri"}, {"title": "mean anomaly", "value": "270.1773463939893", "units": "deg", "name": "ma", "sigma": "1.7935E-5", "label": "M"}, {"name": "tp", "sigma": "2.9024E-5", "units": "TDB", "title": "time of perihelion passage", "value": "2461338.066795863749", "label": "tp"}, {"label": "period", "units": "d", "title": "sidereal orbital period", "value": "551.3536343312364", "name": "per", "sigma": "6.7753E-6"}, {"label": "n", "title": "mean motion", "value": ".6529384728490299", "units": "deg/d", "name": "n", "sigma": "8.0237E-9"}, {"label": "Q", "value": "1.600887556602796", "title": "aphelion distance", "units": "au", "name": "ad", "sigma": "1.3115E-8"}], "epoch": "2461200.5"}